ONEWEB-0201             
1 48241U 21031AH  21215.83334491  .00000015  00000-0  00000+0 0  9997
2 48241  87.8401 283.3879 0008819 276.8873 135.3453 13.69400802 14671
ONEWEB-0207             
1 48242U 21031AJ  21215.83334491  .00000014  00000-0  00000+0 0  9997
2 48242  87.7985 283.3367 0006603 301.4452 296.6932 13.54930814 14619
ONEWEB-0208             
1 48243U 21031AK  21215.83334491  .00000015  00000-0  00000+0 0  9999
2 48243  87.8251 283.3405 0004836 293.7465 269.9880 13.59629994 14628
ONEWEB-0200             
1 48244U 21031AL  21215.83334491  .00000014  00000-0  00000+0 0  9999
2 48244  87.8521 283.2870 0009060 290.2714 305.4516 13.55536557 14559
ONEWEB-0217             
1 48245U 21031AM  21215.83334491  .00000014  00000-0  00000+0 0  9990
2 48245  87.8477 283.2835 0006388 316.1638  49.5961 13.48034163 14518
ONEWEB-0211             
1 48767U 21045A   21215.83334491 -.00023998  00000-0 -81052-2 0  9991
2 48767  87.6291 254.4963 0009167  46.7939  83.8037 14.37198531 11408
ONEWEB-0223             
1 48768U 21045B   21215.83334491 -.01464025  00000-0 -54652+0 0  9996
2 48768  87.6198 254.4623 0012047  27.2097 132.9631 14.35432381 11417
ONEWEB-0230             
1 48769U 21045C   21215.83334491 -.01108923  00000-0 -20936+0 0  9997
2 48769  87.7704 254.3740 0008181  37.3681 296.6888 14.67795975 11469
ONEWEB-0237             
1 48770U 21045D   21215.58334491 -.01427441  00000-0 -59209+0 0  9995
2 48770  87.5728 254.5446 0012512  41.1703 257.7735 14.29956735  3585
ONEWEB-0235             
1 48771U 21045E   21215.83334491 -.01426568  00000-0 -59758+0 0  9992
2 48771  87.6497 254.5796 0007638  51.0251 302.9971 14.29474270 11346
ONEWEB-0242             
1 48772U 21045F   21215.58334491 -.01383659  00000-0 -44874+0 0  9991
2 48772  87.6581 254.5204 0012144  45.3662 268.1609 14.42277828  3544
ONEWEB-0241             
1 48773U 21045G   21215.83334491 -.01405989  00000-0 -54440+0 0  9991
2 48773  87.6043 254.4423 0008703  37.9423 208.9420 14.33455764 11378
ONEWEB-0243             
1 48774U 21045H   21215.83334491 -.01424276  00000-0 -63503+0 0  9992
2 48774  87.5849 254.5167 0012494  43.6909 213.7416 14.26203507 11358
ONEWEB-0222             
1 48775U 21045J   21215.83334491 -.01422509  00000-0 -54141+0 0  9998
2 48775  87.5949 254.4579 0011932  38.4305 317.4531 14.34350941 11392
ONEWEB-0244             
1 48776U 21045K   21215.83334491 -.01397539  00000-0 -33953+0 0  9991
2 48776  87.6652 254.4556 0007691  46.0648 283.9517 14.56673156 11438
ONEWEB-0247             
1 48777U 21045L   21215.83334491 -.01486222  00000-0 -63051+0 0  9992
2 48777  87.5706 254.4378 0008386  39.3130 114.4512 14.28958903 11374
ONEWEB-0245             
1 48778U 21045M   21215.83334491 -.01463815  00000-0 -57729+0 0  9991
2 48778  87.5959 254.4726 0012824  37.8335  72.8834 14.32632499 11372
ONEWEB-0229             
1 48779U 21045N   21215.58334491 -.01429489  00000-0 -60351+0 0  9998
2 48779  87.5678 254.5437 0008560  53.0264 229.0021 14.29072682  3580
ONEWEB-0228             
1 48780U 21045P   21215.83334491 -.01465938  00000-0 -65353+0 0  9994
2 48780  87.5633 254.4902 0010916  27.8712   2.7463 14.26319553 11352
ONEWEB-0232             
1 48781U 21045Q   21215.83334491 -.01091220  00000-0 -16725+0 0  9993
2 48781  87.7989 254.2670 0011431  46.7643 157.8030 14.76735931 11488
ONEWEB-0231             
1 48782U 21045R   21215.83334491 -.01482449  00000-0 -61762+0 0  9992
2 48782  87.5803 254.4480 0010537  49.3502 347.3246 14.29874368 11371
ONEWEB-0234             
1 48783U 21045S   21215.83334491 -.01338964  00000-0 -42808+0 0  9995
2 48783  87.6306 254.4295 0010173  27.4836  51.6227 14.43458074 11392
ONEWEB-0238             
1 48784U 21045T   21215.58334491 -.01420593  00000-0 -55675+0 0  9994
2 48784  87.5937 254.5379 0011562  44.6656  68.8992 14.32857191  3593
ONEWEB-0240             
1 48785U 21045U   21215.83334491 -.01460151  00000-0 -50851+0 0  9998
2 48785  87.6356 254.5144 0008901  42.7871 102.5117 14.38938022 11404
ONEWEB-0246             
1 48786U 21045V   21215.58334491 -.01427773  00000-0 -68163+0 0  9999
2 48786  87.5275 254.5472 0009309  60.7214 331.9604 14.22644057  3508
ONEWEB-0210             
1 48787U 21045W   21215.83334491 -.01455935  00000-0 -64943+0 0  9991
2 48787  87.5583 254.4780 0010965  27.4192 312.3398 14.26266408 11356
ONEWEB-0214             
1 48788U 21045X   21215.83334491 -.01413243  00000-0 -69977+0 0  9990
2 48788  87.5465 254.4987 0008216  50.5766 316.8674 14.20682926 11318
ONEWEB-0221             
1 48789U 21045Y   21215.83334491 -.01479128  00000-0 -53847+0 0  9994
2 48789  87.6194 254.4655 0011239  22.0495 249.4557 14.36742603 11411
ONEWEB-0213             
1 48790U 21045Z   21215.83334491 -.01464298  00000-0 -57027+0 0  9992
2 48790  87.6096 254.4723 0012062  32.3333 252.5991 14.33280546 11406
ONEWEB-0212             
1 48791U 21045AA  21215.58334491  .00025764  00000-0  86008-2 0  9997
2 48791  87.6072 254.5401 0012866  29.3048 196.1990 14.37309918  3543
ONEWEB-0227             
1 48792U 21045AB  21215.83334491 -.01462261  00000-0 -62970+0 0  9995
2 48792  87.5546 254.5450 0008981  33.8207 271.1596 14.28123104 11369
ONEWEB-0226             
1 48793U 21045AC  21215.83334491 -.01430213  00000-0 -63128+0 0  9994
2 48793  87.5736 254.4485 0012003  51.5808 241.5868 14.26746604 11347
ONEWEB-0224             
1 48794U 21045AD  21215.58334491 -.01355621  00000-0 -69776+0 0  9991
2 48794  87.5251 254.5195 0009523  39.8221  18.2894 14.19048565  3500
ONEWEB-0233             
1 48795U 21045AE  21215.58334491 -.01380200  00000-0 -62502+0 0  9993
2 48795  87.5191 254.5043 0007962  53.5073 332.1406 14.25896009  3574
ONEWEB-0190             
1 48796U 21045AF  21215.58334491 -.01400634  00000-0 -56522+0 0  9993
2 48796  87.5670 254.5153 0011876  53.2242 238.5959 14.31310311  3591
ONEWEB-0236             
1 48797U 21045AG  21215.83334491 -.01422103  00000-0 -70902+0 0  9995
2 48797  87.5307 254.4353 0008857  56.5053 326.8620 14.20335690 11311
ONEWEB-0248             
1 48798U 21045AH  21215.58334491 -.01421802  00000-0 -47990+0 0  9994
2 48798  87.6425 254.5296 0010933  46.1491 162.9909 14.40396123  3534
ONEWEB-0225             
1 48799U 21045AJ  21215.58334491 -.01426302  00000-0 -44421+0 0  9991
2 48799  87.6516 254.5114 0008862  53.5959 290.7698 14.44396373  3642
ONEWEB-0215             
1 48800U 21045AK  21215.83334491 -.01348944  00000-0 -59506+0 0  9997
2 48800  87.5409 254.4369 0009841  52.5889 324.5475 14.27166622 11321
ONEWEB-0216             
1 48801U 21045AL  21215.83334491 -.00023824  00000-0 -10713-1 0  9993
2 48801  87.5218 254.5273 0009504  57.7845 196.7581 14.22596874 11328
ONEWEB-0239             
1 48802U 21045AM  21215.83334491 -.01481690  00000-0 -64402+0 0  9996
2 48802  87.5991 254.6300 0013311  46.8775 344.6551 14.27660802 11353
ONEWEB-0249             
1 48967U 21060A   21215.83334491 -.01412681  00000-0 -18068+0 0  9996
2 48967  87.4903 225.9532 0008146 140.1365  99.5835 14.84622525  6367
ONEWEB-0250             
1 48968U 21060B   21215.83334491 -.01416291  00000-0 -19120+0 0  9998
2 48968  87.4738 225.9497 0009164 126.9408 309.1292 14.82391746  6357
ONEWEB-0251             
1 48969U 21060C   21215.83334491  .00037705  00000-0  11887-2 0  9990
2 48969  87.4178 225.6132 0011814 148.6129 180.3347 15.32663405  6399
ONEWEB-0252             
1 48970U 21060D   21215.83334491 -.01360152  00000-0 -16885+0 0  9990
2 48970  87.4879 225.9181 0011782 144.2909 226.8097 14.86214981  6362
ONEWEB-0253             
1 48971U 21060E   21215.83334491 -.01379045  00000-0 -18007+0 0  9990
2 48971  87.4558 225.9452 0009469 128.4782  50.3423 14.83681306  6347
ONEWEB-0254             
1 48972U 21060F   21215.83334491 -.01388792  00000-0 -19568+0 0  9993
2 48972  87.4613 225.9599 0012454 146.7425  78.9109 14.80510396  6341
ONEWEB-0255             
1 48973U 21060G   21215.83334491 -.01340304  00000-0 -15412+0 0  9995
2 48973  87.4878 225.9287 0007215 141.6702 128.9812 14.89312603  6369
ONEWEB-0256             
1 48974U 21060H   21215.58334491 -.01394747  00000-0 -16101+0 0  9994
2 48974  87.4783 226.0247 0012814 142.0674  17.6578 14.89225071  3729
ONEWEB-0257             
1 48975U 21060J   21215.83334491 -.01417458  00000-0 -18951+0 0  9993
2 48975  87.4812 225.9725 0011193 127.7942 282.1191 14.82772260  6351
ONEWEB-0258             
1 48976U 21060K   21215.83334491 -.01415608  00000-0 -19667+0 0  9994
2 48976  87.4574 225.9666 0009495 133.4287  31.4994 14.81194722  6344
ONEWEB-0259             
1 48977U 21060L   21215.83334491 -.01367688  00000-0 -16830+0 0  9998
2 48977  87.4920 225.9161 0013137 142.1046 276.2057 14.86572632  6364
ONEWEB-0260             
1 48978U 21060M   21215.83334491 -.01324482  00000-0 -17179+0 0  9991
2 48978  87.4632 225.9402 0008961 129.9462  48.8481 14.84365104  6341
ONEWEB-0261             
1 48979U 21060N   21215.83334491 -.01322738  00000-0 -15936+0 0  9993
2 48979  87.4906 225.9022 0011748 142.4062 278.6016 14.87333923  6363
ONEWEB-0262             
1 48980U 21060P   21215.83334491 -.01401104  00000-0 -17308+0 0  9995
2 48980  87.4974 225.9496 0009992 141.7686 171.2447 14.85997572  6367
ONEWEB-0263             
1 48981U 21060Q   21215.58334491 -.01485417  00000-0 -19955+0 0  9997
2 48981  87.4717 226.0403 0010469 126.6290  23.7369 14.82736422  3685
ONEWEB-0264             
1 48982U 21060R   21215.83334491 -.01415826  00000-0 -20679+0 0  9998
2 48982  87.4489 225.9655 0010216 149.5689 342.7502 14.79094014  6344
ONEWEB-0265             
1 48983U 21060S   21215.83334491  .00039645  00000-0  96421-3 0  9999
2 48983  87.3966 225.5629 0008643 136.3278 145.8651 15.40768126  6416
ONEWEB-0266             
1 48984U 21060T   21215.83334491 -.01379890  00000-0 -18836+0 0  9992
2 48984  87.4707 225.9476 0012295 146.5660 168.3469 14.81812431  6354
